[{"OBJECT_NAME":"STARLINK-36814","OBJECT_ID":"2026-036A","EPOCH":"2026-03-09T22:00:01.999584","MEAN_MOTION":15.74661974,"ECCENTRICITY":0.00015797,"INCLINATION":42.9995,"RA_OF_ASC_NODE":248.4785,"ARG_OF_PERICENTER":276.779,"MEAN_ANOMALY":148.1663,"EPHEMERIS_TYPE":0,"CLASSIFICATION_TYPE":"U","NORAD_CAT_ID":67904,"ELEMENT_SET_NO":999,"REV_AT_EPOCH":368,"BSTAR":-0.014123764,"MEAN_MOTION_DOT":-0.01861626,"MEAN_MOTION_DDOT":0},{"OBJECT_NAME":"FENGYUN 1C DEB","OBJECT_ID":"1999-025BHM","EPOCH":"2026-03-07T15:41:41.908992","MEAN_MOTION":15.52424712,"ECCENTRICITY":0.00874412,"INCLINATION":97.8053,"RA_OF_ASC_NODE":37.5391,"ARG_OF_PERICENTER":68.6008,"MEAN_ANOMALY":292.4545,"EPHEMERIS_TYPE":0,"CLASSIFICATION_TYPE":"U","NORAD_CAT_ID":31159,"ELEMENT_SET_NO":999,"REV_AT_EPOCH":844,"BSTAR":0.0020496514,"MEAN_MOTION_DOT":0.00149592,"MEAN_MOTION_DDOT":0}]
